[{"OBJECT_NAME":"SCS-01 B","OBJECT_ID":"2025-100B","EPOCH":"2026-03-09T21:49:11.508672","MEAN_MOTION":15.3317485,"ECCENTRICITY":0.00088698,"INCLINATION":97.3706,"RA_OF_ASC_NODE":145.9041,"ARG_OF_PERICENTER":288.6157,"MEAN_ANOMALY":71.4122,"EPHEMERIS_TYPE":0,"CLASSIFICATION_TYPE":"U","NORAD_CAT_ID":63983,"ELEMENT_SET_NO":999,"REV_AT_EPOCH":4567,"BSTAR":0.00098809397,"MEAN_MOTION_DOT":0.00031724,"MEAN_MOTION_DDOT":0},{"OBJECT_NAME":"STARLINK-35299","OBJECT_ID":"2025-235Q","EPOCH":"2026-03-09T17:11:51.762048","MEAN_MOTION":15.30191359,"ECCENTRICITY":8.667e-5,"INCLINATION":53.1563,"RA_OF_ASC_NODE":245.2827,"ARG_OF_PERICENTER":116.1157,"MEAN_ANOMALY":243.9933,"EPHEMERIS_TYPE":0,"CLASSIFICATION_TYPE":"U","NORAD_CAT_ID":66072,"ELEMENT_SET_NO":999,"REV_AT_EPOCH":2292,"BSTAR":0.0012634045,"MEAN_MOTION_DOT":0.00037237,"MEAN_MOTION_DDOT":0}]
